{
  "type": "FeatureCollection",
  "features": [
    {
      "type": "Feature",
      "properties": {
        "norad_id": 40894,
        "name": "GAOFEN-9 01",
        "group": "resource",
        "lat": 4.5216315334208765,
        "lon": -159.03266253284667,
        "alt_km": 635.2406650995044,
        "timestamp": "2025-12-07T03:52:32.127310+00:00",
        "meta_object_name": "GAOFEN-9 01",
        "meta_object_id": "2015-047A",
        "meta_epoch": "2025-12-06T14:07:47.014176",
        "meta_mean_motion": 14.82399375,
        "meta_eccentricity": 0.00287961,
        "meta_inclination": 97.6547,
        "meta_ra_of_asc_node": 19.8099,
        "meta_arg_of_pericenter": 53.7638,
        "meta_mean_anomaly": 306.6231,
        "meta_ephemeris_type": 0,
        "meta_classification_type": "U",
        "meta_norad_cat_id": 40894,
        "meta_element_set_no": 999,
        "meta_rev_at_epoch": 55165,
        "meta_bstar": 0.00032056583,
        "meta_mean_motion_dot": 2.535e-05,
        "meta_mean_motion_ddot": 0,
        "tle_line1": "1 40894U 15047A   25340.58873859  .00002535  00000+0  32057-3 0  9993",
        "tle_line2": "2 40894  97.6547  19.8099 0028796  53.7638 306.6231 14.82399375551659"
      },
      "geometry": {
        "type": "Point",
        "coordinates": [
          -159.03266253284667,
          4.5216315334208765
        ]
      }
    },
    {
      "type": "Feature",
      "properties": {
        "norad_id": 41026,
        "name": "YAOGAN-28",
        "group": "resource",
        "lat": -27.034531689944565,
        "lon": -64.6284613867586,
        "alt_km": 495.1817224522156,
        "timestamp": "2025-12-07T03:52:32.127320+00:00",
        "meta_object_name": "YAOGAN-28",
        "meta_object_id": "2015-064A",
        "meta_epoch": "2025-12-06T15:56:28.099968",
        "meta_mean_motion": 15.24200159,
        "meta_eccentricity": 0.00120797,
        "meta_inclination": 97.2808,
        "meta_ra_of_asc_node": 118.6292,
        "meta_arg_of_pericenter": 146.0776,
        "meta_mean_anomaly": 214.1237,
        "meta_ephemeris_type": 0,
        "meta_classification_type": "U",
        "meta_norad_cat_id": 41026,
        "meta_element_set_no": 999,
        "meta_rev_at_epoch": 56132,
        "meta_bstar": 0.00064057728,
        "meta_mean_motion_dot": 0.00015588,
        "meta_mean_motion_ddot": 0,
        "tle_line1": "1 41026U 15064A   25340.66421412  .00015588  00000+0  64058-3 0  9991",
        "tle_line2": "2 41026  97.2808 118.6292 0012079 146.0776 214.1237 15.24200159561324"
      },
      "geometry": {
        "type": "Point",
        "coordinates": [
          -64.6284613867586,
          -27.034531689944565
        ]
      }
    },
    {
      "type": "Feature",
      "properties": {
        "norad_id": 41038,
        "name": "YAOGAN-29",
        "group": "resource",
        "lat": 52.5422756777063,
        "lon": -6.2923284793506005,
        "alt_km": 615.1822487913123,
        "timestamp": "2025-12-07T03:52:32.127331+00:00",
        "meta_object_name": "YAOGAN-29",
        "meta_object_id": "2015-069A",
        "meta_epoch": "2025-12-06T14:40:49.496736",
        "meta_mean_motion": 14.82872443,
        "meta_eccentricity": 5.064e-05,
        "meta_inclination": 98.0223,
        "meta_ra_of_asc_node": 3.7635,
        "meta_arg_of_pericenter": 357.5326,
        "meta_mean_anomaly": 2.5885,
        "meta_ephemeris_type": 0,
        "meta_classification_type": "U",
        "meta_norad_cat_id": 41038,
        "meta_element_set_no": 999,
        "meta_rev_at_epoch": 54208,
        "meta_bstar": 0.00012119521,
        "meta_mean_motion_dot": 9.28e-06,
        "meta_mean_motion_ddot": 0,
        "tle_line1": "1 41038U 15069A   25340.61168399  .00000928  00000+0  12120-3 0  9991",
        "tle_line2": "2 41038  98.0223   3.7635 0000506 357.5326   2.5885 14.82872443542088"
      },
      "geometry": {
        "type": "Point",
        "coordinates": [
          -6.2923284793506005,
          52.5422756777063
        ]
      }
    },
    {
      "type": "Feature",
      "properties": {
        "norad_id": 41167,
        "name": "KENT RIDGE 1",
        "group": "resource",
        "lat": 9.186231600611922,
        "lon": 35.324789462264356,
        "alt_km": 497.0732419632368,
        "timestamp": "2025-12-07T03:52:32.127342+00:00",
        "meta_object_name": "KENT RIDGE 1",
        "meta_object_id": "2015-077B",
        "meta_epoch": "2025-12-06T09:57:02.267712",
        "meta_mean_motion": 15.21561581,
        "meta_eccentricity": 0.0008588,
        "meta_inclination": 14.9797,
        "meta_ra_of_asc_node": 258.0748,
        "meta_arg_of_pericenter": 41.1428,
        "meta_mean_anomaly": 318.9541,
        "meta_ephemeris_type": 0,
        "meta_classification_type": "U",
        "meta_norad_cat_id": 41167,
        "meta_element_set_no": 999,
        "meta_rev_at_epoch": 55167,
        "meta_bstar": 0.00030461314,
        "meta_mean_motion_dot": 7.844e-05,
        "meta_mean_motion_ddot": 0,
        "tle_line1": "1 41167U 15077B   25340.41460958  .00007844  00000+0  30461-3 0  9999",
        "tle_line2": "2 41167  14.9797 258.0748 0008588  41.1428 318.9541 15.21561581551671"
      },
      "geometry": {
        "type": "Point",
        "coordinates": [
          35.324789462264356,
          9.186231600611922
        ]
      }
    },
    {
      "type": "Feature",
      "properties": {
        "norad_id": 41194,
        "name": "GAOFEN-4",
        "group": "resource",
        "lat": 0.029061379708342633,
        "lon": -119.947398915795,
        "alt_km": 35776.92082126296,
        "timestamp": "2025-12-07T03:52:32.127355+00:00",
        "meta_object_name": "GAOFEN-4",
        "meta_object_id": "2015-083A",
        "meta_epoch": "2025-12-06T12:27:19.033056",
        "meta_mean_motion": 1.00272149,
        "meta_eccentricity": 0.00036167,
        "meta_inclination": 0.1539,
        "meta_ra_of_asc_node": 80.9284,
        "meta_arg_of_pericenter": 105.9328,
        "meta_mean_anomaly": 181.2288,
        "meta_ephemeris_type": 0,
        "meta_classification_type": "U",
        "meta_norad_cat_id": 41194,
        "meta_element_set_no": 999,
        "meta_rev_at_epoch": 3659,
        "meta_bstar": 0,
        "meta_mean_motion_dot": -3.28e-06,
        "meta_mean_motion_ddot": 0,
        "tle_line1": "1 41194U 15083A   25340.51897029 -.00000328  00000+0  00000+0 0  9993",
        "tle_line2": "2 41194   0.1539  80.9284 0003616 105.9328 181.2288  1.00272149 36593"
      },
      "geometry": {
        "type": "Point",
        "coordinates": [
          -119.947398915795,
          0.029061379708342633
        ]
      }
    },
    {
      "type": "Feature",
      "properties": {
        "norad_id": 41240,
        "name": "JASON-3",
        "group": "resource",
        "lat": 14.814574597753255,
        "lon": 176.3063121310267,
        "alt_km": 1312.2991114903334,
        "timestamp": "2025-12-07T03:52:32.127367+00:00",
        "meta_object_name": "JASON-3",
        "meta_object_id": "2016-002A",
        "meta_epoch": "2025-12-06T14:44:34.484928",
        "meta_mean_motion": 12.87626228,
        "meta_eccentricity": 0.00071268,
        "meta_inclination": 66.0391,
        "meta_ra_of_asc_node": 170.7026,
        "meta_arg_of_pericenter": 270.419,
        "meta_mean_anomaly": 89.6012,
        "meta_ephemeris_type": 0,
        "meta_classification_type": "U",
        "meta_norad_cat_id": 41240,
        "meta_element_set_no": 999,
        "meta_rev_at_epoch": 46245,
        "meta_bstar": 6.7157426e-05,
        "meta_mean_motion_dot": -4.5e-07,
        "meta_mean_motion_ddot": 0,
        "tle_line1": "1 41240U 16002A   25340.61428802 -.00000045  00000+0  67157-4 0  9994",
        "tle_line2": "2 41240  66.0391 170.7026 0007126 270.4190  89.6012 12.87626228462451"
      },
      "geometry": {
        "type": "Point",
        "coordinates": [
          176.3063121310267,
          14.814574597753255
        ]
      }
    },
    {
      "type": "Feature",
      "properties": {
        "norad_id": 41335,
        "name": "SENTINEL-3A",
        "group": "resource",
        "lat": 21.57618124632775,
        "lon": -130.30809312506852,
        "alt_km": 802.1266780531168,
        "timestamp": "2025-12-07T03:52:32.127378+00:00",
        "meta_object_name": "SENTINEL-3A",
        "meta_object_id": "2016-011A",
        "meta_epoch": "2025-12-06T15:21:19.812096",
        "meta_mean_motion": 14.26743128,
        "meta_eccentricity": 9.732e-05,
        "meta_inclination": 98.6215,
        "meta_ra_of_asc_node": 45.7385,
        "meta_arg_of_pericenter": 92.4388,
        "meta_mean_anomaly": 267.6904,
        "meta_ephemeris_type": 0,
        "meta_classification_type": "U",
        "meta_norad_cat_id": 41335,
        "meta_element_set_no": 999,
        "meta_rev_at_epoch": 51060,
        "meta_bstar": 0.00014511549,
        "meta_mean_motion_dot": 3.08e-06,
        "meta_mean_motion_ddot": 0,
        "tle_line1": "1 41335U 16011A   25340.63981264  .00000308  00000+0  14512-3 0  9994",
        "tle_line2": "2 41335  98.6215  45.7385 0000973  92.4388 267.6904 14.26743128510608"
      },
      "geometry": {
        "type": "Point",
        "coordinates": [
          -130.30809312506852,
          21.57618124632775
        ]
      }
    }
  ]
}